DELTA 2 R/B(1)          
1 20453U 90008B   26042.93577418  .00064883  00000+0  84944-3 0  9999
2 20453  35.6055 343.4021 0092668  18.0627 342.3367 15.52393750922126
COSMOS 2058             
1 20465U 90010A   26042.55957236  .00004502  00000+0  26699-3 0  9998
2 20465  82.4648  73.1698 0011785  69.9601 290.2896 15.11077571938290
SL-14 R/B               
1 20466U 90010B   26042.71978442  .00000455  00000+0  52203-4 0  9993
2 20466  82.5023 291.7847 0020609  29.4326 330.8044 14.83546324924637
SL-14 R/B               
1 20511U 90018B   26042.91508228  .00000474  00000+0  56466-4 0  9991
2 20511  82.5181 247.1861 0016450 171.9748 188.1733 14.82117239918768
HST                     
1 20580U 90037B   26042.70850709  .00007661  00000+0  25590-3 0  9997
2 20580  28.4660 217.1802 0001634 171.3900 188.6724 15.29062122769333
SL-16 R/B               
1 20625U 90046B   26042.89470310  .00000310  00000+0  18435-3 0  9997
2 20625  71.0009 352.0851 0014901 335.5925  24.4490 14.15008082844744
COSMOS 2084             
1 20663U 90055A   26042.48666365  .00002834  00000+0  20930-3 0  9997
2 20663  62.7896  64.9350 0021232 184.4558 175.6357 15.05479095932372
SL-6 R/B(2)             
1 20666U 90055D   26042.89943715  .00002984  00000+0  23155-3 0  9990
2 20666  62.7847 341.5450 0020878 339.9118  20.1157 15.03461495934311
SL-8 R/B                
1 20775U 90078B   26042.69674396  .00015857  00000+0  46647-3 0  9994
2 20775  82.9020 274.6704 0366765 101.0865 263.1822 14.88196633805431
SL-8 R/B                
1 21088U 91006B   26042.92360115  .00000034  00000+0  18018-4 0  9994
2 21088  82.9439 189.2013 0023726 106.9068  16.9465 13.77492185760528
OKEAN-3                 
1 21397U 91039A   26042.94346856  .00004157  00000+0  29344-3 0  9994
2 21397  82.5175   1.7775 0016412  61.6284 298.6595 15.04597470861168
COSMOS 2151             
1 21422U 91042A   26042.86806721  .00002084  00000+0  16519-3 0  9997
2 21422  82.4960 108.5857 0013499 141.6839 218.5347 15.00006682859329
