CCSDS_OMM_VERS = 2.0
CREATION_DATE  = 
ORIGINATOR     = 

OBJECT_NAME    = DELTA 2 R/B(1)
OBJECT_ID      = 1990-008B
CENTER_NAME    = EARTH
REF_FRAME      = TEME
TIME_SYSTEM    = UTC
MEAN_ELEMENT_THEORY = SGP/SGP4

EPOCH          = 2026-02-11T22:27:30.889152
MEAN_MOTION    = 15.52393750
ECCENTRICITY   = .00926689
INCLINATION    = 35.6055
RA_OF_ASC_NODE = 343.4021
ARG_OF_PERICENTER = 18.0627
MEAN_ANOMALY   = 342.3367

EPHEMERIS_TYPE = 0
CLASSIFICATION_TYPE = U
NORAD_CAT_ID   = 20453
ELEMENT_SET_NO = 999
REV_AT_EPOCH   = 92212
BSTAR          = .8494416E-3
MEAN_MOTION_DOT = .64883E-3
MEAN_MOTION_DDOT = 0

CCSDS_OMM_VERS = 2.0
CREATION_DATE  = 
ORIGINATOR     = 

OBJECT_NAME    = COSMOS 2058
OBJECT_ID      = 1990-010A
CENTER_NAME    = EARTH
REF_FRAME      = TEME
TIME_SYSTEM    = UTC
MEAN_ELEMENT_THEORY = SGP/SGP4

EPOCH          = 2026-02-11T13:25:47.051904
MEAN_MOTION    = 15.11077571
ECCENTRICITY   = .00117851
INCLINATION    = 82.4648
RA_OF_ASC_NODE = 73.1698
ARG_OF_PERICENTER = 69.9601
MEAN_ANOMALY   = 290.2896

EPHEMERIS_TYPE = 0
CLASSIFICATION_TYPE = U
NORAD_CAT_ID   = 20465
ELEMENT_SET_NO = 999
REV_AT_EPOCH   = 93829
BSTAR          = .26699348E-3
MEAN_MOTION_DOT = .4502E-4
MEAN_MOTION_DDOT = 0

CCSDS_OMM_VERS = 2.0
CREATION_DATE  = 
ORIGINATOR     = 

OBJECT_NAME    = SL-14 R/B
OBJECT_ID      = 1990-010B
CENTER_NAME    = EARTH
REF_FRAME      = TEME
TIME_SYSTEM    = UTC
MEAN_ELEMENT_THEORY = SGP/SGP4

EPOCH          = 2026-02-11T17:16:29.373888
MEAN_MOTION    = 14.83546324
ECCENTRICITY   = .00206094
INCLINATION    = 82.5023
RA_OF_ASC_NODE = 291.7847
ARG_OF_PERICENTER = 29.4326
MEAN_ANOMALY   = 330.8044

EPHEMERIS_TYPE = 0
CLASSIFICATION_TYPE = U
NORAD_CAT_ID   = 20466
ELEMENT_SET_NO = 999
REV_AT_EPOCH   = 92463
BSTAR          = .52202773E-4
MEAN_MOTION_DOT = .455E-5
MEAN_MOTION_DDOT = 0

CCSDS_OMM_VERS = 2.0
CREATION_DATE  = 
ORIGINATOR     = 

OBJECT_NAME    = SL-14 R/B
OBJECT_ID      = 1990-018B
CENTER_NAME    = EARTH
REF_FRAME      = TEME
TIME_SYSTEM    = UTC
MEAN_ELEMENT_THEORY = SGP/SGP4

EPOCH          = 2026-02-11T21:57:43.108992
MEAN_MOTION    = 14.82117239
ECCENTRICITY   = .00164502
INCLINATION    = 82.5181
RA_OF_ASC_NODE = 247.1861
ARG_OF_PERICENTER = 171.9748
MEAN_ANOMALY   = 188.1733

EPHEMERIS_TYPE = 0
CLASSIFICATION_TYPE = U
NORAD_CAT_ID   = 20511
ELEMENT_SET_NO = 999
REV_AT_EPOCH   = 91876
BSTAR          = .56466189E-4
MEAN_MOTION_DOT = .474E-5
MEAN_MOTION_DDOT = 0

CCSDS_OMM_VERS = 2.0
CREATION_DATE  = 
ORIGINATOR     = 

OBJECT_NAME    = HST
OBJECT_ID      = 1990-037B
CENTER_NAME    = EARTH
REF_FRAME      = TEME
TIME_SYSTEM    = UTC
MEAN_ELEMENT_THEORY = SGP/SGP4

EPOCH          = 2026-02-11T17:00:15.012576
MEAN_MOTION    = 15.29062122
ECCENTRICITY   = .00016349
INCLINATION    = 28.4660
RA_OF_ASC_NODE = 217.1802
ARG_OF_PERICENTER = 171.3900
MEAN_ANOMALY   = 188.6724

EPHEMERIS_TYPE = 0
CLASSIFICATION_TYPE = U
NORAD_CAT_ID   = 20580
ELEMENT_SET_NO = 999
REV_AT_EPOCH   = 76933
BSTAR          = .25589823E-3
MEAN_MOTION_DOT = .7661E-4
MEAN_MOTION_DDOT = 0

CCSDS_OMM_VERS = 2.0
CREATION_DATE  = 
ORIGINATOR     = 

OBJECT_NAME    = SL-16 R/B
OBJECT_ID      = 1990-046B
CENTER_NAME    = EARTH
REF_FRAME      = TEME
TIME_SYSTEM    = UTC
MEAN_ELEMENT_THEORY = SGP/SGP4

EPOCH          = 2026-02-11T21:28:22.347840
MEAN_MOTION    = 14.15008082
ECCENTRICITY   = .00149014
INCLINATION    = 71.0009
RA_OF_ASC_NODE = 352.0851
ARG_OF_PERICENTER = 335.5925
MEAN_ANOMALY   = 24.4490

EPHEMERIS_TYPE = 0
CLASSIFICATION_TYPE = U
NORAD_CAT_ID   = 20625
ELEMENT_SET_NO = 999
REV_AT_EPOCH   = 84474
BSTAR          = .18434733E-3
MEAN_MOTION_DOT = .31E-5
MEAN_MOTION_DDOT = 0

CCSDS_OMM_VERS = 2.0
CREATION_DATE  = 
ORIGINATOR     = 

OBJECT_NAME    = COSMOS 2084
OBJECT_ID      = 1990-055A
CENTER_NAME    = EARTH
REF_FRAME      = TEME
TIME_SYSTEM    = UTC
MEAN_ELEMENT_THEORY = SGP/SGP4

EPOCH          = 2026-02-11T11:40:47.739360
MEAN_MOTION    = 15.05479095
ECCENTRICITY   = .00212328
INCLINATION    = 62.7896
RA_OF_ASC_NODE = 64.9350
ARG_OF_PERICENTER = 184.4558
MEAN_ANOMALY   = 175.6357

EPHEMERIS_TYPE = 0
CLASSIFICATION_TYPE = U
NORAD_CAT_ID   = 20663
ELEMENT_SET_NO = 999
REV_AT_EPOCH   = 93237
BSTAR          = .20929536E-3
MEAN_MOTION_DOT = .2834E-4
MEAN_MOTION_DDOT = 0

CCSDS_OMM_VERS = 2.0
CREATION_DATE  = 
ORIGINATOR     = 

OBJECT_NAME    = SL-6 R/B(2)
OBJECT_ID      = 1990-055D
CENTER_NAME    = EARTH
REF_FRAME      = TEME
TIME_SYSTEM    = UTC
MEAN_ELEMENT_THEORY = SGP/SGP4

EPOCH          = 2026-02-11T21:35:11.369760
MEAN_MOTION    = 15.03461495
ECCENTRICITY   = .00208787
INCLINATION    = 62.7847
RA_OF_ASC_NODE = 341.5450
ARG_OF_PERICENTER = 339.9118
MEAN_ANOMALY   = 20.1157

EPHEMERIS_TYPE = 0
CLASSIFICATION_TYPE = U
NORAD_CAT_ID   = 20666
ELEMENT_SET_NO = 999
REV_AT_EPOCH   = 93431
BSTAR          = .23155344E-3
MEAN_MOTION_DOT = .2984E-4
MEAN_MOTION_DDOT = 0

CCSDS_OMM_VERS = 2.0
CREATION_DATE  = 
ORIGINATOR     = 

OBJECT_NAME    = SL-8 R/B
OBJECT_ID      = 1990-078B
CENTER_NAME    = EARTH
REF_FRAME      = TEME
TIME_SYSTEM    = UTC
MEAN_ELEMENT_THEORY = SGP/SGP4

EPOCH          = 2026-02-11T16:43:18.678144
MEAN_MOTION    = 14.88196633
ECCENTRICITY   = .03667653
INCLINATION    = 82.9020
RA_OF_ASC_NODE = 274.6704
ARG_OF_PERICENTER = 101.0865
MEAN_ANOMALY   = 263.1822

EPHEMERIS_TYPE = 0
CLASSIFICATION_TYPE = U
NORAD_CAT_ID   = 20775
ELEMENT_SET_NO = 999
REV_AT_EPOCH   = 80543
BSTAR          = .46647442E-3
MEAN_MOTION_DOT = .15857E-3
MEAN_MOTION_DDOT = 0

CCSDS_OMM_VERS = 2.0
CREATION_DATE  = 
ORIGINATOR     = 

OBJECT_NAME    = SL-8 R/B
OBJECT_ID      = 1991-006B
CENTER_NAME    = EARTH
REF_FRAME      = TEME
TIME_SYSTEM    = UTC
MEAN_ELEMENT_THEORY = SGP/SGP4

EPOCH          = 2026-02-11T22:09:59.139360
MEAN_MOTION    = 13.77492185
ECCENTRICITY   = .00237268
INCLINATION    = 82.9439
RA_OF_ASC_NODE = 189.2013
ARG_OF_PERICENTER = 106.9068
MEAN_ANOMALY   = 16.9465

EPHEMERIS_TYPE = 0
CLASSIFICATION_TYPE = U
NORAD_CAT_ID   = 21088
ELEMENT_SET_NO = 999
REV_AT_EPOCH   = 76052
BSTAR          = .18017784E-4
MEAN_MOTION_DOT = .34E-6
MEAN_MOTION_DDOT = 0

CCSDS_OMM_VERS = 2.0
CREATION_DATE  = 
ORIGINATOR     = 

OBJECT_NAME    = OKEAN-3
OBJECT_ID      = 1991-039A
CENTER_NAME    = EARTH
REF_FRAME      = TEME
TIME_SYSTEM    = UTC
MEAN_ELEMENT_THEORY = SGP/SGP4

EPOCH          = 2026-02-11T22:38:35.683584
MEAN_MOTION    = 15.04597470
ECCENTRICITY   = .00164125
INCLINATION    = 82.5175
RA_OF_ASC_NODE = 1.7775
ARG_OF_PERICENTER = 61.6284
MEAN_ANOMALY   = 298.6595

EPHEMERIS_TYPE = 0
CLASSIFICATION_TYPE = U
NORAD_CAT_ID   = 21397
ELEMENT_SET_NO = 999
REV_AT_EPOCH   = 86116
BSTAR          = .29344098E-3
MEAN_MOTION_DOT = .4157E-4
MEAN_MOTION_DDOT = 0

CCSDS_OMM_VERS = 2.0
CREATION_DATE  = 
ORIGINATOR     = 

OBJECT_NAME    = COSMOS 2151
OBJECT_ID      = 1991-042A
CENTER_NAME    = EARTH
REF_FRAME      = TEME
TIME_SYSTEM    = UTC
MEAN_ELEMENT_THEORY = SGP/SGP4

EPOCH          = 2026-02-11T20:50:01.006944
MEAN_MOTION    = 15.00006682
ECCENTRICITY   = .00134999
INCLINATION    = 82.4960
RA_OF_ASC_NODE = 108.5857
ARG_OF_PERICENTER = 141.6839
MEAN_ANOMALY   = 218.5347

EPHEMERIS_TYPE = 0
CLASSIFICATION_TYPE = U
NORAD_CAT_ID   = 21422
ELEMENT_SET_NO = 999
REV_AT_EPOCH   = 85932
BSTAR          = .16519328E-3
MEAN_MOTION_DOT = .2084E-4
MEAN_MOTION_DDOT = 0

